NORAD_CAT_ID,OBJECT_NAME,OBJECT_TYPE,EPOCH,MEAN_MOTION,ECCENTRICITY,INCLINATION,RA_OF_ASC_NODE,ARG_OF_PERICENTER,MEAN_ANOMALY,BSTAR,MEAN_MOTION_DOT,MEAN_MOTION_DDOT,TLE_LINE0,TLE_LINE1,TLE_LINE2,SEMIMAJOR_AXIS,PERIOD,APOGEE,PERIGEE,DECAYED
54099.0,STARLINK-5198,PAYLOAD,2023-04-23 02:01:00,15.08854927,9.11e-05,53.218,14.5184,86.6806,273.429,0.0010857,0.0001704,0.0,0 STARLINK-5198,1 54099U 22136BA  23113.08403343  .00017040  00000-0  10857-2 0  9991,2 54099  53.2180  14.5184 0000911  86.6806 273.4290 15.08854927 28237,6917.835,95.437,540.33,539.07,0.0
54099.0,STARLINK-5198,PAYLOAD,2023-04-23 16:19:29,15.08845328,0.0001517,53.2163,11.8415,93.1247,266.9919,0.0013818,0.00021775,0.0,0 STARLINK-5198,1 54099U 22136BA  23113.68019982  .00021775  00000-0  13818-2 0  9999,2 54099  53.2163  11.8415 0001517  93.1247 266.9919 15.08845328 28320,6917.864,95.437,540.779,538.68,0.0
54099.0,STARLINK-5198,PAYLOAD,2023-04-24 01:51:47,15.08857542,0.0001449,53.2157,10.0582,91.3122,268.8036,0.0015305,0.00024166,0.0,0 STARLINK-5198,1 54099U 22136BA  23114.07763709  .00024166  00000-0  15305-2 0  9996,2 54099  53.2157  10.0582 0001449  91.3122 268.8036 15.08857542 28383,6917.827,95.436,540.694,538.689,0.0
54099.0,STARLINK-5198,PAYLOAD,2023-04-24 16:10:14,15.08905376,0.0001439,53.2162,7.3805,112.3346,247.7799,0.0027887,0.00044454,0.0,0 STARLINK-5198,1 54099U 22136BA  23114.67378163  .00044454  00000-0  27887-2 0  9998,2 54099  53.2162   7.3805 0001439 112.3346 247.7799 15.08905376 28940,6917.681,95.433,540.541,538.55,0.0
54099.0,STARLINK-5198,PAYLOAD,2023-04-25 00:07:09,15.08896765,0.0001309,53.2163,5.8945,103.691,256.4228,0.0010396,0.00016322,0.0,0 STARLINK-5198,1 54099U 22136BA  23115.00497088  .00016322  00000-0  10396-2 0  9994,2 54099  53.2163   5.8945 0001309 103.6910 256.4228 15.08896765 28524,6917.707,95.434,540.477,538.666,0.0
54099.0,STARLINK-5198,PAYLOAD,2023-04-25 20:47:12,15.08777428,0.0001067,53.2164,2.0282,104.555,255.556,-0.0016421,-0.00026282,0.0,0 STARLINK-5198,1 54099U 22136BA  23115.86611893 -.00026282  00000-0 -16421-2 0  9993,2 54099  53.2164   2.0282 0001067 104.5550 255.5560 15.08777428 28656,6918.072,95.442,540.675,539.198,0.0
54099.0,STARLINK-5198,PAYLOAD,2023-04-26 19:02:38,15.08805442,0.0001049,53.2163,357.8672,86.4932,273.618,0.0015031,0.00023692,0.0,0 STARLINK-5198,1 54099U 22136BA  23116.79350472  .00023692  00000-0  15031-2 0  9995,2 54099  53.2163 357.8672 0001049  86.4932 273.6180 15.08805442 28793,6917.986,95.44,540.577,539.125,0.0
54099.0,STARLINK-5198,PAYLOAD,2023-04-27 18:53:24,15.08875987,8.07e-05,53.2166,353.4058,82.496,277.6124,0.0013382,0.00021095,0.0,0 STARLINK-5198,1 54099U 22136BA  23117.78709043  .00021095  00000-0  13382-2 0  9999,2 54099  53.2166 353.4058 0000807  82.4960 277.6124 15.08875987 29417,6917.77,95.435,540.194,539.077,0.0
54099.0,STARLINK-5198,PAYLOAD,2023-04-28 09:11:52,15.08858069,0.0001832,53.2148,350.7329,59.6507,300.4666,0.00018479,2.655e-05,0.0,0 STARLINK-5198,1 54099U 22136BA  23118.38324897  .00002655  00000-0  18479-3 0  9990,2 54099  53.2148 350.7329 0001832  59.6507 300.4666 15.08858069 29508,6917.825,95.436,540.958,538.423,0.0
54099.0,STARLINK-5198,PAYLOAD,2023-04-28 21:54:57,15.08844602,7.83e-05,53.2159,348.3506,89.03,271.0782,0.00015677,2.208e-05,0.0,0 STARLINK-5198,1 54099U 22136BA  23118.91316587  .00002208  00000-0  15677-3 0  9997,2 54099  53.2159 348.3506 0000783  89.0300 271.0782 15.08844602 29580,6917.866,95.437,540.273,539.19,0.0
54099.0,STARLINK-5198,PAYLOAD,2023-04-30 00:56:30,15.08855589,7.59e-05,53.2159,343.2958,95.3768,264.7311,0.00047017,7.206e-05,0.0,0 STARLINK-5198,1 54099U 22136BA  23120.03924130  .00007206  00000-0  47017-3 0  9998,2 54099  53.2159 343.2958 0000759  95.3768 264.7311 15.08855589 29758,6917.833,95.437,540.223,539.173,0.0
54099.0,STARLINK-5198,PAYLOAD,2023-04-30 20:01:08,15.0883874,8.63e-05,53.216,339.7289,74.7819,285.3269,3.2529e-05,2.3e-06,0.0,0 STARLINK-5198,1 54099U 22136BA  23120.83412664  .00000230  00000-0  32529-4 0  9993,2 54099  53.2160 339.7289 0000863  74.7819 285.3269 15.08838740 29875,6917.884,95.438,540.346,539.152,0.0
54099.0,STARLINK-5198,PAYLOAD,2023-05-01 21:27:18,15.08843789,8.37e-05,53.2162,334.969,88.9681,271.1407,0.00012722,1.738e-05,0.0,0 STARLINK-5198,1 54099U 22136BA  23121.89396580  .00001738  00000-0  12722-3 0  9994,2 54099  53.2162 334.9690 0000837  88.9681 271.1407 15.08843789 30031,6917.869,95.437,540.313,539.155,0.0
54099.0,STARLINK-5198,PAYLOAD,2023-05-01 23:02:41,15.08845255,8.3e-05,53.2161,334.6712,89.3515,270.7572,0.00016489,2.338e-05,0.0,0 STARLINK-5198,1 54099U 22136BA  23121.96020530  .00002338  00000-0  16489-3 0  9992,2 54099  53.2161 334.6712 0000830  89.3515 270.7572 15.08845255 29571,6917.864,95.437,540.304,539.155,0.0
54099.0,STARLINK-5198,PAYLOAD,2023-05-02 21:18:05,15.08848048,8.71e-05,53.2161,330.5078,98.378,261.7311,0.00024433,3.604e-05,0.0,0 STARLINK-5198,1 54099U 22136BA  23122.88756377  .00003604  00000-0  24433-3 0  9994,2 54099  53.2161 330.5078 0000871  98.3780 261.7311 15.08848048 29710,6917.856,95.437,540.323,539.118,0.0
54099.0,STARLINK-5198,PAYLOAD,2023-05-02 22:53:28,15.08850482,9.19e-05,53.216,330.2098,106.7794,253.3299,0.00028246,4.212e-05,0.0,0 STARLINK-5198,1 54099U 22136BA  23122.95380232  .00004212  00000-0  28246-3 0  9997,2 54099  53.2160 330.2098 0000919 106.7794 253.3299 15.08850482 30191,6917.848,95.437,540.349,539.078,0.0
54099.0,STARLINK-5198,PAYLOAD,2023-05-03 06:50:24,15.08839964,0.000105,53.2165,328.7216,95.9304,264.1808,6.6299e-05,7.68e-06,0.0,0 STARLINK-5198,1 54099U 22136BA  23123.28500663  .00000768  00000-0  66299-4 0  9999,2 54099  53.2165 328.7216 0001050  95.9304 264.1808 15.08839964 30247,6917.88,95.438,540.472,539.019,0.0
54099.0,STARLINK-5198,PAYLOAD,2023-05-03 21:08:52,15.08840013,9.57e-05,53.2166,326.0454,90.7361,269.3741,7.3612e-05,8.84e-06,0.0,0 STARLINK-5198,1 54099U 22136BA  23123.88116836  .00000884  00000-0  73612-4 0  9996,2 54099  53.2166 326.0454 0000957  90.7361 269.3741 15.08840013 29860,6917.88,95.438,540.407,539.083,0.0
54099.0,STARLINK-5198,PAYLOAD,2023-05-04 13:02:44,15.08837673,8.73e-05,53.216,323.0728,90.0839,270.0253,-5.0324e-05,-1.088e-05,0.0,0 STARLINK-5198,1 54099U 22136BA  23124.54357196 -.00001088  00000-0 -50324-4 0  9990,2 54099  53.2160 323.0728 0000873  90.0839 270.0253 15.08837673 30435,6917.888,95.438,540.356,539.149,0.0
54099.0,STARLINK-5198,PAYLOAD,2023-05-04 19:24:17,15.08840856,8.46e-05,53.2157,321.8837,89.5791,270.5298,2.3938e-05,9.3e-07,0.0,0 STARLINK-5198,1 54099U 22136BA  23124.80853087  .00000093  00000-0  23938-4 0  9993,2 54099  53.2157 321.8837 0000846  89.5791 270.5298 15.08840856 30002,6917.878,95.438,540.328,539.158,0.0
54099.0,STARLINK-5198,PAYLOAD,2023-05-05 19:15:04,15.08845082,8.49e-05,53.2159,317.4228,87.8018,272.3071,0.00025938,3.843e-05,0.0,0 STARLINK-5198,1 54099U 22136BA  23125.80213142  .00003843  00000-0  25938-3 0  9993,2 54099  53.2159 317.4228 0000849  87.8018 272.3071 15.08845082 30156,6917.865,95.437,540.317,539.143,0.0
54099.0,STARLINK-5198,PAYLOAD,2023-05-05 22:25:50,15.0885015,8.9e-05,53.2157,316.828,84.7634,275.346,0.00028761,4.294e-05,0.0,0 STARLINK-5198,1 54099U 22136BA  23125.93460903  .00004294  00000-0  28761-3 0  9994,2 54099  53.2157 316.8280 0000890  84.7634 275.3460 15.08850150 30642,6917.849,95.437,540.33,539.099,0.0
54099.0,STARLINK-5198,PAYLOAD,2023-05-06 22:16:38,15.08828095,0.000137,53.2164,312.3644,108.2919,251.8222,0.00056829,8.765e-05,0.0,0 STARLINK-5198,1 54099U 22136BA  23126.92822323  .00008765  00000-0  56829-3 0  9995,2 54099  53.2164 312.3644 0001370 108.2919 251.8222 15.08828095 30791,6917.917,95.438,540.73,538.834,0.0
54099.0,STARLINK-5198,PAYLOAD,2023-05-07 18:56:38,15.08845405,7.74e-05,53.2154,308.5021,90.1591,269.949,8.4096e-05,1.051e-05,0.0,0 STARLINK-5198,1 54099U 22136BA  23127.78933132  .00001051  00000-0  84096-4 0  9990,2 54099  53.2154 308.5021 0000774  90.1591 269.9490 15.08845405 30924,6917.864,95.437,540.264,539.193,0.0
54099.0,STARLINK-5198,PAYLOAD,2023-05-08 18:47:25,15.08843689,7.46e-05,53.2142,304.0445,116.3216,243.7853,3.2515e-05,2.3e-06,0.0,0 STARLINK-5198,1 54099U 22136BA  23128.78293077  .00000230  00000-0  32515-4 0  9995,2 54099  53.2142 304.0445 0000746 116.3216 243.7853 15.08843689 30606,6917.869,95.437,540.25,539.218,0.0
54099.0,STARLINK-5198,PAYLOAD,2023-05-09 04:19:44,15.08840685,8.46e-05,53.2141,302.2605,119.641,240.4666,2.0221e-05,3.4e-07,0.0,0 STARLINK-5198,1 54099U 22136BA  23129.18037172  .00000034  00000-0  20221-4 0  9995,2 54099  53.2141 302.2605 0000846 119.6410 240.4666 15.08840685 30661,6917.878,95.438,540.329,539.158,0.0
54099.0,STARLINK-5198,PAYLOAD,2023-05-10 04:10:31,15.08844196,7.33e-05,53.216,297.7988,99.2684,260.8391,8.7675e-05,1.108e-05,0.0,0 STARLINK-5198,1 54099U 22136BA  23130.17397231  .00001108  00000-0  87675-4 0  9990,2 54099  53.2160 297.7988 0000733  99.2684 260.8391 15.08844196 30814,6917.868,95.437,540.24,539.225,0.0
54099.0,STARLINK-5198,PAYLOAD,2023-05-10 18:28:59,15.08845433,8.78e-05,53.2167,295.1208,81.3382,278.7709,5.8363e-05,6.41e-06,0.0,0 STARLINK-5198,1 54099U 22136BA  23130.77013378  .00000641  00000-0  58363-4 0  9996,2 54099  53.2167 295.1208 0000878  81.3382 278.7709 15.08845433 31373,6917.864,95.437,540.336,539.121,0.0
54099.0,STARLINK-5198,PAYLOAD,2023-05-11 04:01:18,15.08845119,8.93e-05,53.2169,293.3372,83.3832,276.7262,4.8528e-05,4.85e-06,0.0,0 STARLINK-5198,1 54099U 22136BA  23131.16757376  .00000485  00000-0  48528-4 0  9991,2 54099  53.2169 293.3372 0000893  83.3832 276.7262 15.08845119 30963,6917.865,95.437,540.348,539.112,0.0
54099.0,STARLINK-5198,PAYLOAD,2023-05-11 16:44:23,15.08838737,7.42e-05,53.2171,290.9576,87.751,272.3567,0.00011046,1.471e-05,0.0,0 STARLINK-5198,1 54099U 22136BA  23131.69749687  .00001471  00000-0  11046-3 0  9995,2 54099  53.2171 290.9576 0000742  87.7510 272.3567 15.08838737 31519,6917.884,95.438,540.263,539.236,0.0
